STARLINK-30265          
1 57646U 23122Q   26068.11230251  .00000978  00000+0  46145-4 0  9992
2 57646  43.0004  95.3336 0001225 290.4065  69.6655 15.26741509142123
TRANSPORTER-12 OBJECT BA
1 62657U 25009BA  26068.70118713  .00011330  00000+0  42733-3 0  9991
2 62657  97.3985 151.1390 0000403 234.6623 125.4579 15.27214003 63739
